{"type":"FeatureCollection","features":[{"type":"Feature","properties":{},"geometry":{"type":"LineString","coordinates":[[48.375,5.0],[48.375,5.25],[48.5,5.375],[48.625,5.5],[48.75,5.625],[48.875,5.75],[48.875,6.0],[49.0,6.125],[49.125,6.25],[49.125,6.5],[49.25,6.625],[49.375,6.75],[49.375,7.0],[49.5,7.125],[49.625,7.25],[49.625,7.5],[49.75,7.625],[49.875,7.75],[49.875,8.0],[50.0,8.125],[50.125,8.25],[50.25,8.375],[50.375,8.5],[50.375,8.75],[50.5,8.875],[50.625,9.0],[50.625,9.25],[50.75,9.375],[50.875,9.5],[50.875,9.75],[50.875,10.0],[50.875,10.25],[51.0,10.375],[51.25,10.375],[51.5,10.375],[51.625,10.5],[51.5,10.625],[51.25,10.625],[51.125,10.75],[51.125,11.0],[51.125,11.25],[51.125,11.5],[51.25,11.625],[51.375,11.75],[51.25,11.875],[51.125,12.0],[51.0,12.125],[50.75,12.125],[50.625,12.0],[50.5,11.875],[50.375,11.75],[50.25,11.625],[50.0,11.625],[49.75,11.625],[49.625,11.5],[49.5,11.375],[49.25,11.375],[49.0,11.375],[48.75,11.375],[48.5,11.375],[48.375,11.25],[48.25,11.125],[48.0,11.125],[47.75,11.125],[47.5,11.125],[47.25,11.125],[47.125,11.0],[47.0,10.875],[46.75,10.875],[46.5,10.875],[46.25,10.875],[46.0,10.875],[45.75,10.875],[45.625,10.75],[45.5,10.625],[45.25,10.625],[45.0,10.625]]}},{"type":"Feature","properties":{},"geometry":{"type":"LineString","coordinates":[[97.875,5.0],[97.75,5.125],[97.625,5.25],[97.5,5.375],[97.375,5.25],[97.25,5.125],[97.125,5.25],[97.0,5.375],[96.75,5.375],[96.5,5.375],[96.25,5.375],[96.0,5.375],[95.875,5.5],[95.75,5.625],[95.5,5.625],[95.25,5.625],[95.125,5.5],[95.25,5.375],[95.375,5.25],[95.375,5.0]]}},{"type":"Feature","properties":{},"geometry":{"type":"LineString","coordinates":[[103.375,5.0],[103.375,5.25],[103.25,5.375],[103.125,5.5],[103.0,5.625],[102.875,5.75],[102.875,6.0],[102.75,6.125],[102.5,6.125],[102.375,6.25],[102.25,6.375],[102.0,6.375],[101.875,6.5],[101.75,6.625],[101.625,6.75],[101.5,6.875],[101.25,6.875],[101.0,6.875],[100.875,7.0],[100.75,7.125],[100.625,7.25],[100.625,7.5],[100.5,7.625],[100.375,7.75],[100.375,8.0],[100.375,8.25],[100.375,8.5],[100.25,8.625],[100.125,8.75],[100.0,8.875],[99.875,9.0],[99.875,9.25],[100.0,9.375],[100.125,9.5],[100.125,9.75],[100.0,9.875],[99.875,9.75],[99.75,9.625],[99.625,9.5],[99.5,9.375],[99.375,9.5],[99.25,9.625],[99.125,9.75],[99.125,10.0],[99.25,10.125],[99.375,10.25],[99.375,10.5],[99.375,10.75],[99.5,10.875],[99.625,11.0],[99.625,11.25],[99.625,11.5],[99.75,11.625],[99.875,11.75],[99.875,12.0],[100.0,12.125],[100.125,12.25],[100.125,12.5],[100.125,12.75],[100.125,13.0],[100.125,13.25],[100.25,13.375],[100.5,13.375],[100.75,13.375],[100.875,13.25],[100.875,13.0],[100.875,12.75],[101.0,12.625],[101.25,12.625],[101.5,12.625],[101.75,12.625],[102.0,12.625],[102.125,12.5],[102.25,12.375],[102.375,12.25],[102.375,12.0],[102.5,11.875],[102.625,12.0],[102.75,12.125],[102.875,12.0],[102.875,11.75],[103.0,11.625],[103.125,11.5],[103.125,11.25],[103.125,11.0],[103.125,10.75],[103.25,10.625],[103.375,10.75],[103.5,10.875],[103.625,10.75],[103.625,10.5],[103.75,10.375],[103.875,10.25],[104.0,10.125],[104.125,10.25],[104.125,10.5],[104.25,10.625],[104.375,10.5],[104.5,10.375],[104.625,10.25],[104.75,10.125],[105.0,10.125]]}},{"type":"Feature","properties":{},"geometry":{"type":"LineString","coordinates":[[105.0,9.875],[104.875,9.75],[104.875,9.5],[104.875,9.25],[104.875,9.0],[104.875,8.75],[105.0,8.625]]}},{"type":"Feature","properties":{},"geometry":{"type":"LineString","coordinates":[[45.0,12.875],[45.125,13.0],[45.25,13.125],[45.5,13.125],[45.625,13.25],[45.75,13.375],[46.0,13.375],[46.25,13.375],[46.5,13.375],[46.75,13.375],[46.875,13.5],[47.0,13.625],[47.25,13.625],[47.5,13.625],[47.625,13.75],[47.75,13.875],[47.875,14.0],[48.0,14.125],[48.125,14.0],[48.25,13.875],[48.5,13.875],[48.625,14.0],[48.75,14.125],[48.875,14.25],[49.0,14.375],[49.125,14.5],[49.25,14.625],[49.5,14.625],[49.625,14.75],[49.75,14.875],[50.0,14.875],[50.25,14.875],[50.375,15.0],[50.5,15.125],[50.75,15.125],[51.0,15.125],[51.25,15.125],[51.375,15.25],[51.5,15.375],[51.75,15.375],[51.875,15.5],[52.0,15.625],[52.25,15.625],[52.375,15.75],[52.375,16.0],[52.375,16.25],[52.5,16.375],[52.625,16.5],[52.75,16.625],[53.0,16.625],[53.25,16.625],[53.375,16.75],[53.5,16.875],[53.75,16.875],[54.0,16.875],[54.125,17.0],[54.25,17.125],[54.5,17.125],[54.75,17.125],[55.0,17.125],[55.25,17.125],[55.375,17.25],[55.375,17.5],[55.375,17.75],[55.5,17.875],[55.75,17.875],[56.0,17.875],[56.25,17.875],[56.375,18.0],[56.5,18.125],[56.625,18.25],[56.625,18.5],[56.75,18.625],[56.875,18.75],[57.0,18.875],[57.25,18.875],[57.5,18.875],[57.75,18.875],[57.875,19.0],[57.875,19.25],[57.875,19.5],[57.875,19.75],[57.875,20.0],[57.875,20.25],[58.0,20.375],[58.125,20.5],[58.25,20.625],[58.375,20.5],[58.5,20.375],[58.625,20.5],[58.625,20.75],[58.75,20.875],[58.875,21.0],[59.0,21.125],[59.125,21.25],[59.25,21.375],[59.375,21.5],[59.5,21.625],[59.625,21.75],[59.625,22.0],[59.75,22.125],[59.875,22.25],[59.875,22.5],[59.75,22.625],[59.5,22.625],[59.375,22.75],[59.375,23.0],[59.25,23.125],[59.125,23.25],[59.0,23.375],[58.875,23.5],[58.75,23.625],[58.5,23.625],[58.25,23.625],[58.125,23.75],[58.0,23.875],[57.75,23.875],[57.5,23.875],[57.375,24.0],[57.25,24.125],[57.0,24.125],[56.875,24.25],[56.75,24.375],[56.625,24.5],[56.625,24.75],[56.5,24.875],[56.375,25.0],[56.375,25.25],[56.375,25.5],[56.375,25.75],[56.375,26.0],[56.5,26.125],[56.625,26.25],[56.5,26.375],[56.25,26.375],[56.125,26.25],[56.125,26.0],[56.0,25.875],[55.875,25.75],[55.75,25.625],[55.625,25.5],[55.5,25.375],[55.375,25.25],[55.25,25.125],[55.0,25.125],[54.875,25.0],[54.75,24.875],[54.625,24.75],[54.5,24.625],[54.375,24.5],[54.25,24.375],[54.125,24.25],[54.0,24.125],[53.875,24.25],[53.75,24.375],[53.625,24.25],[53.5,24.125],[53.25,24.125],[53.0,24.125],[52.75,24.125],[52.5,24.125],[52.25,24.125],[52.125,24.25],[52.0,24.375],[51.875,24.5],[51.75,24.625],[51.625,24.75],[51.625,25.0],[51.625,25.25],[51.625,25.5],[51.625,25.75],[51.625,26.0],[51.5,26.125],[51.25,26.125],[51.0,26.125],[50.875,26.0],[50.75,25.875],[50.625,25.75],[50.75,25.625],[50.875,25.5],[50.875,25.25],[50.75,25.125],[50.625,25.25],[50.5,25.375],[50.375,25.5],[50.375,25.75],[50.25,25.875],[50.125,26.0],[50.25,26.125],[50.375,26.0],[50.5,25.875],[50.625,26.0],[50.75,26.125],[50.875,26.25],[50.75,26.375],[50.625,26.5],[50.5,26.625],[50.375,26.5],[50.25,26.375],[50.125,26.5],[50.125,26.75],[50.0,26.875],[49.875,27.0],[49.75,27.125],[49.5,27.125],[49.375,27.25],[49.375,27.5],[49.25,27.625],[49.0,27.625],[48.875,27.75],[49.0,27.875],[49.125,28.0],[49.0,28.125],[48.75,28.125],[48.625,28.25],[48.625,28.5],[48.5,28.625],[48.375,28.75],[48.375,29.0],[48.25,29.125],[48.125,29.25],[48.0,29.375],[47.875,29.5],[48.0,29.625],[48.125,29.5],[48.25,29.375],[48.375,29.5],[48.375,29.75],[48.5,29.875],[48.625,30.0]]}},{"type":"Feature","properties":{},"geometry":{"type":"LineString","coordinates":[[50.125,30.0],[50.25,29.875],[50.375,29.75],[50.5,29.625],[50.625,29.5],[50.625,29.25],[50.75,29.125],[50.875,29.0],[51.0,28.875],[51.125,28.75],[51.125,28.5],[51.25,28.375],[51.375,28.25],[51.375,28.0],[51.5,27.875],[51.75,27.875],[52.0,27.875],[52.125,27.75],[52.25,27.625],[52.5,27.625],[52.625,27.5],[52.75,27.375],[52.875,27.25],[53.0,27.125],[53.25,27.125],[53.375,27.0],[53.5,26.875],[53.75,26.875],[54.0,26.875],[54.25,26.875],[54.375,26.75],[54.5,26.625],[54.75,26.625],[55.0,26.625],[55.125,26.75],[55.25,26.875],[55.375,26.75],[55.5,26.625],[55.75,26.625],[55.875,26.75],[55.75,26.875],[55.625,27.0],[55.75,27.125],[56.0,27.125],[56.125,27.0],[56.25,26.875],[56.375,27.0],[56.5,27.125],[56.75,27.125],[56.875,27.0],[57.0,26.875],[57.125,26.75],[57.125,26.5],[57.125,26.25],[57.125,26.0],[57.25,25.875],[57.375,25.75],[57.5,25.625],[57.75,25.625],[58.0,25.625],[58.25,25.625],[58.5,25.625],[58.75,25.625],[58.875,25.5],[59.0,25.375],[59.25,25.375],[59.5,25.375],[59.75,25.375],[60.0,25.375],[60.25,25.375],[60.5,25.375],[60.75,25.375],[60.875,25.25],[61.0,25.125],[61.25,25.125],[61.5,25.125],[61.75,25.125],[62.0,25.125],[62.25,25.125],[62.5,25.125],[62.625,25.25],[62.75,25.375],[62.875,25.25],[63.0,25.125],[63.25,25.125],[63.5,25.125],[63.625,25.25],[63.75,25.375],[64.0,25.375],[64.25,25.375],[64.5,25.375],[64.625,25.25],[64.75,25.125],[64.875,25.25],[65.0,25.375],[65.25,25.375],[65.5,25.375],[65.75,25.375],[66.0,25.375],[66.25,25.375],[66.5,25.375],[66.625,25.25],[66.625,25.0],[66.75,24.875],[67.0,24.875],[67.125,24.75],[67.25,24.625],[67.375,24.5],[67.375,24.25],[67.375,24.0],[67.5,23.875],[67.75,23.875],[68.0,23.875],[68.125,23.75],[68.25,23.625],[68.375,23.5],[68.5,23.375],[68.625,23.25],[68.75,23.125],[68.875,23.0],[69.0,22.875],[69.25,22.875],[69.5,22.875],[69.625,22.75],[69.625,22.5],[69.5,22.375],[69.375,22.5],[69.25,22.625],[69.125,22.5],[69.0,22.375],[68.875,22.25],[69.0,22.125],[69.125,22.0],[69.25,21.875],[69.375,21.75],[69.5,21.625],[69.75,21.625],[69.875,21.5],[70.0,21.375],[70.125,21.25],[70.25,21.125],[70.375,21.0],[70.5,20.875],[70.625,20.75],[70.75,20.625],[71.0,20.625],[71.125,20.75],[71.25,20.875],[71.5,20.875],[71.625,21.0],[71.75,21.125],[72.0,21.125],[72.125,21.25],[72.25,21.375],[72.375,21.5],[72.375,21.75],[72.375,22.0],[72.375,22.25],[72.5,22.375],[72.625,22.25],[72.625,22.0],[72.625,21.75],[72.625,21.5],[72.625,21.25],[72.75,21.125],[72.875,21.0],[72.875,20.75],[72.875,20.5],[72.875,20.25],[72.75,20.125],[72.625,20.0],[72.625,19.75],[72.75,19.625],[72.875,19.5],[72.875,19.25],[72.875,19.0],[72.875,18.75],[72.875,18.5],[72.875,18.25],[73.0,18.125],[73.125,18.0],[73.125,17.75],[73.125,17.5],[73.25,17.375],[73.375,17.25],[73.375,17.0],[73.375,16.75],[73.375,16.5],[73.375,16.25],[73.375,16.0],[73.5,15.875],[73.625,15.75],[73.75,15.625],[73.875,15.5],[73.875,15.25],[74.0,15.125],[74.125,15.0],[74.125,14.75],[74.25,14.625],[74.375,14.5],[74.375,14.25],[74.5,14.125],[74.625,14.0],[74.625,13.75],[74.625,13.5],[74.75,13.375],[74.875,13.25],[74.875,13.0],[74.875,12.75],[75.0,12.625],[75.125,12.5],[75.125,12.25],[75.25,12.125],[75.375,12.0],[75.5,11.875],[75.625,11.75],[75.625,11.5],[75.75,11.375],[75.875,11.25],[75.875,11.0],[75.875,10.75],[76.0,10.625],[76.125,10.5],[76.125,10.25],[76.125,10.0],[76.25,9.875],[76.375,9.75],[76.375,9.5],[76.375,9.25],[76.5,9.125],[76.625,9.0],[76.625,8.75],[76.75,8.625],[76.875,8.5],[77.0,8.375],[77.125,8.25],[77.25,8.125],[77.5,8.125],[77.75,8.125],[77.875,8.25],[78.0,8.375],[78.125,8.5],[78.125,8.75],[78.25,8.875],[78.375,9.0],[78.5,9.125],[78.75,9.125],[78.875,9.25],[78.875,9.5],[79.0,9.625],[79.125,9.75],[79.25,9.875],[79.375,10.0],[79.375,10.25],[79.5,10.375],[79.75,10.375],[79.875,10.5],[79.875,10.75],[79.875,11.0],[79.875,11.25],[79.875,11.5],[79.875,11.75],[79.875,12.0],[80.0,12.125],[80.125,12.25],[80.125,12.5],[80.25,12.625],[80.375,12.75],[80.375,13.0],[80.375,13.25],[80.375,13.5],[80.375,13.75],[80.25,13.875],[80.125,14.0],[80.125,14.25],[80.125,14.5],[80.125,14.75],[80.125,15.0],[80.125,15.25],[80.125,15.5],[80.25,15.625],[80.375,15.75],[80.5,15.875],[80.75,15.875],[81.0,15.875],[81.125,16.0],[81.25,16.125],[81.375,16.25],[81.5,16.375],[81.75,16.375],[82.0,16.375],[82.25,16.375],[82.375,16.5],[82.375,16.75],[82.375,17.0],[82.5,17.125],[82.625,17.25],[82.75,17.375],[83.0,17.375],[83.125,17.5],[83.25,17.625],[83.375,17.75],[83.5,17.875],[83.625,18.0],[83.75,18.125],[84.0,18.125],[84.125,18.25],[84.25,18.375],[84.375,18.5],[84.5,18.625],[84.625,18.75],[84.625,19.0],[84.75,19.125],[84.875,19.25],[85.0,19.375],[85.25,19.375],[85.375,19.5],[85.5,19.625],[85.625,19.75],[85.75,19.875],[86.0,19.875],[86.25,19.875],[86.375,20.0],[86.5,20.125],[86.625,20.25],[86.75,20.375],[86.875,20.5],[87.0,20.625],[87.125,20.75],[87.0,20.875],[86.875,21.0],[86.875,21.25],[87.0,21.375],[87.125,21.5],[87.25,21.625],[87.5,21.625],[87.75,21.625],[87.875,21.75],[88.0,21.875],[88.125,21.75],[88.25,21.625],[88.5,21.625],[88.75,21.625],[89.0,21.625],[89.25,21.625],[89.5,21.625],[89.75,21.625],[89.875,21.75],[89.875,22.0],[90.0,22.125],[90.125,22.0],[90.25,21.875],[90.375,22.0],[90.5,22.125],[90.75,22.125],[90.875,22.0],[91.0,21.875],[91.125,22.0],[91.25,22.125],[91.375,22.25],[91.25,22.375],[91.0,22.375],[90.875,22.5],[91.0,22.625],[91.25,22.625],[91.5,22.625],[91.75,22.625],[91.875,22.5],[91.875,22.25],[91.875,22.0],[91.875,21.75],[91.875,21.5],[92.0,21.375],[92.125,21.25],[92.125,21.0],[92.25,20.875],[92.375,20.75],[92.5,20.625],[92.625,20.5],[92.75,20.375],[92.875,20.25],[93.0,20.125],[93.25,20.125],[93.375,20.0],[93.5,19.875],[93.625,19.75],[93.625,19.5],[93.625,19.25],[93.75,19.125],[93.875,19.0],[93.75,18.875],[93.625,18.75],[93.75,18.625],[94.0,18.625],[94.25,18.625],[94.375,18.5],[94.375,18.25],[94.375,18.0],[94.5,17.875],[94.625,17.75],[94.625,17.5],[94.625,17.25],[94.5,17.125],[94.375,17.0],[94.375,16.75],[94.375,16.5],[94.375,16.25],[94.5,16.125],[94.625,16.0],[94.75,15.875],[95.0,15.875],[95.25,15.875],[95.5,15.875],[95.75,15.875],[95.875,16.0],[96.0,16.125],[96.125,16.25],[96.25,16.375],[96.375,16.5],[96.5,16.625],[96.75,16.625],[96.875,16.75],[96.875,17.0],[96.875,17.25],[97.0,17.375],[97.125,17.25],[97.125,17.0],[97.25,16.875],[97.375,16.75],[97.5,16.625],[97.625,16.5],[97.625,16.25],[97.625,16.0],[97.75,15.875],[97.875,15.75],[97.875,15.5],[97.875,15.25],[97.875,15.0],[97.875,14.75],[97.875,14.5],[98.0,14.375],[98.125,14.25],[98.125,14.0],[98.125,13.75],[98.25,13.625],[98.375,13.5],[98.5,13.375],[98.625,13.25],[98.625,13.0],[98.625,12.75],[98.5,12.625],[98.25,12.625],[98.125,12.5],[98.25,12.375],[98.375,12.25],[98.25,12.125],[98.0,12.125],[97.875,12.0],[98.0,11.875],[98.125,11.75],[98.0,11.625],[97.875,11.5],[98.0,11.375],[98.125,11.25],[98.125,11.0],[98.125,10.75],[98.0,10.625],[97.875,10.5],[98.0,10.375],[98.25,10.375],[98.375,10.5],[98.5,10.625],[98.625,10.5],[98.625,10.25],[98.625,10.0],[98.625,9.75],[98.5,9.625],[98.375,9.5],[98.375,9.25],[98.375,9.0],[98.375,8.75],[98.375,8.5],[98.375,8.25],[98.5,8.125],[98.625,8.25],[98.75,8.375],[98.875,8.25],[99.0,8.125],[99.125,8.0],[99.125,7.75],[99.25,7.625],[99.375,7.5],[99.5,7.375],[99.625,7.25],[99.625,7.0],[99.625,6.75],[99.625,6.5],[99.75,6.375],[99.875,6.5],[100.0,6.625],[100.125,6.5],[100.25,6.375],[100.375,6.25],[100.375,6.0],[100.375,5.75],[100.25,5.625],[100.125,5.5],[100.25,5.375],[100.375,5.25],[100.375,5.0]]}},{"type":"Feature","properties":{},"geometry":{"type":"LineString","coordinates":[[73.0,5.375],[73.125,5.5],[73.25,5.625],[73.375,5.75],[73.5,5.875],[73.625,6.0],[73.5,6.125],[73.375,6.25],[73.25,6.375],[73.125,6.25],[73.125,6.0],[73.0,5.875],[72.875,5.75],[72.875,5.5],[73.0,5.375]]}},{"type":"Feature","properties":{},"geometry":{"type":"LineString","coordinates":[[73.5,5.375],[73.75,5.375],[73.875,5.5],[73.75,5.625],[73.5,5.625],[73.375,5.5],[73.5,5.375]]}},{"type":"Feature","properties":{},"geometry":{"type":"LineString","coordinates":[[80.5,5.875],[80.75,5.875],[80.875,6.0],[81.0,6.125],[81.25,6.125],[81.375,6.25],[81.5,6.375],[81.625,6.5],[81.75,6.625],[81.875,6.75],[81.875,7.0],[81.875,7.25],[81.875,7.5],[81.875,7.75],[81.75,7.875],[81.625,8.0],[81.625,8.25],[81.5,8.375],[81.375,8.5],[81.375,8.75],[81.25,8.875],[81.125,9.0],[81.0,9.125],[80.875,9.25],[80.75,9.375],[80.625,9.5],[80.5,9.625],[80.375,9.75],[80.25,9.875],[80.0,9.875],[79.875,9.75],[80.0,9.625],[80.125,9.5],[80.0,9.375],[79.875,9.5],[79.75,9.625],[79.625,9.5],[79.5,9.375],[79.375,9.25],[79.5,9.125],[79.75,9.125],[79.875,9.0],[79.875,8.75],[79.875,8.5],[79.75,8.375],[79.625,8.25],[79.75,8.125],[79.875,8.0],[79.875,7.75],[79.875,7.5],[79.875,7.25],[79.875,7.0],[79.875,6.75],[80.0,6.625],[80.125,6.5],[80.125,6.25],[80.25,6.125],[80.375,6.0],[80.5,5.875]]}},{"type":"Feature","properties":{},"geometry":{"type":"LineString","coordinates":[[73.0,6.625],[73.25,6.625],[73.375,6.75],[73.375,7.0],[73.25,7.125],[73.125,7.0],[73.0,6.875],[72.875,6.75],[73.0,6.625]]}},{"type":"Feature","properties":{},"geometry":{"type":"LineString","coordinates":[[93.75,6.875],[94.0,6.875],[94.125,7.0],[94.0,7.125],[93.875,7.25],[93.875,7.5],[93.75,7.625],[93.625,7.5],[93.625,7.25],[93.625,7.0],[93.75,6.875]]}},{"type":"Feature","properties":{},"geometry":{"type":"LineString","coordinates":[[93.25,8.125],[93.5,8.125],[93.625,8.25],[93.5,8.375],[93.25,8.375],[93.125,8.25],[93.25,8.125]]}},{"type":"Feature","properties":{},"geometry":{"type":"LineString","coordinates":[[92.75,9.125],[92.875,9.25],[92.75,9.375],[92.625,9.25],[92.75,9.125]]}},{"type":"Feature","properties":{},"geometry":{"type":"LineString","coordinates":[[98.0,9.625],[98.25,9.625],[98.375,9.75],[98.375,10.0],[98.25,10.125],[98.125,10.0],[98.0,9.875],[97.875,9.75],[98.0,9.625]]}},{"type":"Feature","properties":{},"geometry":{"type":"LineString","coordinates":[[92.5,10.375],[92.625,10.5],[92.625,10.75],[92.5,10.875],[92.375,10.75],[92.375,10.5],[92.5,10.375]]}},{"type":"Feature","properties":{},"geometry":{"type":"LineString","coordinates":[[98.5,10.875],[98.375,11.0],[98.375,11.25],[98.5,11.375],[98.625,11.5],[98.75,11.625],[98.875,11.5],[98.875,11.25],[98.75,11.125],[98.625,11.0],[98.5,10.875]]}},{"type":"Feature","properties":{},"geometry":{"type":"LineString","coordinates":[[72.75,11.125],[72.875,11.25],[72.75,11.375],[72.625,11.25],[72.75,11.125]]}},{"type":"Feature","properties":{},"geometry":{"type":"LineString","coordinates":[[73.0,11.375],[73.125,11.5],[73.0,11.625],[72.875,11.5],[73.0,11.375]]}},{"type":"Feature","properties":{},"geometry":{"type":"LineString","coordinates":[[92.75,11.375],[92.875,11.5],[92.875,11.75],[93.0,11.875],[93.125,12.0],[93.125,12.25],[93.125,12.5],[93.125,12.75],[93.125,13.0],[93.125,13.25],[93.125,13.5],[93.0,13.625],[92.875,13.5],[92.875,13.25],[92.875,13.0],[92.75,12.875],[92.625,12.75],[92.625,12.5],[92.625,12.25],[92.625,12.0],[92.625,11.75],[92.625,11.5],[92.75,11.375]]}},{"type":"Feature","properties":{},"geometry":{"type":"LineString","coordinates":[[72.75,11.625],[72.875,11.75],[72.75,11.875],[72.625,11.75],[72.75,11.625]]}},{"type":"Feature","properties":{},"geometry":{"type":"LineString","coordinates":[[53.5,12.375],[53.75,12.375],[54.0,12.375],[54.25,12.375],[54.375,12.5],[54.375,12.75],[54.25,12.875],[54.125,12.75],[54.0,12.625],[53.875,12.75],[53.75,12.875],[53.5,12.875],[53.375,12.75],[53.375,12.5],[53.5,12.375]]}},{"type":"Feature","properties":{},"geometry":{"type":"LineString","coordinates":[[98.25,13.125],[98.375,13.25],[98.25,13.375],[98.125,13.25],[98.25,13.125]]}},{"type":"Feature","properties":{},"geometry":{"type":"LineString","coordinates":[[94.25,15.875],[94.375,16.0],[94.25,16.125],[94.125,16.0],[94.25,15.875]]}},{"type":"Feature","properties":{},"geometry":{"type":"LineString","coordinates":[[58.75,20.125],[58.875,20.25],[58.75,20.375],[58.625,20.25],[58.75,20.125]]}},{"type":"Feature","properties":{},"geometry":{"type":"LineString","coordinates":[[70.0,22.625],[69.875,22.75],[70.0,22.875],[70.25,22.875],[70.375,22.75],[70.25,22.625],[70.0,22.625]]}},{"type":"Feature","properties":{},"geometry":{"type":"LineString","coordinates":[[53.5,24.375],[53.625,24.5],[53.5,24.625],[53.375,24.5],[53.5,24.375]]}},{"type":"Feature","properties":{},"geometry":{"type":"LineString","coordinates":[[52.0,24.875],[52.125,25.0],[52.0,25.125],[51.875,25.0],[52.0,24.875]]}},{"type":"Feature","properties":{},"geometry":{"type":"LineString","coordinates":[[54.5,26.125],[54.625,26.25],[54.5,26.375],[54.375,26.25],[54.5,26.125]]}}]}